[
    {
        "Altitude(m)": 604234.5911806913,
        "Argument of Periapsis(deg)": 0.0,
        "Eccentricity": 0.0,
        "Inclination(deg)": 60.0,
        "Latitude(deg)": 14.117132835956324,
        "Longitude(deg)": -113.2726573769747,
        "Mean Anomaly(deg)": 163.6364,
        "RAAN(deg)": 175.0,
        "Satellite Name": "Test1 780",
        "Satellite Number": 780,
        "Semi-Major Axis(m)": 6980739.136638005,
        "Time(s)": 0
    },
    {
        "Altitude(m)": 604223.4203286441,
        "Argument of Periapsis(deg)": 0.00010418945913296404,
        "Eccentricity": 0.0,
        "Inclination(deg)": 60.0,
        "Latitude(deg)": 13.582268892459798,
        "Longitude(deg)": -112.98574892619268,
        "Mean Anomaly(deg)": 164.25650614546186,
        "RAAN(deg)": 174.99957995086024,
        "Satellite Name": "Test1 780",
        "Satellite Number": 780,
        "Semi-Major Axis(m)": 6980739.136638005,
        "Time(s)": 10
    }
]